{"type": "FeatureCollection", "features": [ {"type": "Feature", "properties": {"norad_id": 39574, "name": "GPM-CORE", "group": "resource", "lat": 19.044003137077222, "lon": -136.36990045440618, "alt_km": 437.12662176347203, "timestamp": "2025-12-12T05:47:28.428954+00:00", "meta": {"OBJECT_NAME": "GPM-CORE", "OBJECT_ID": "2014-009C", "EPOCH": "2025-12-11T23:29:01.555872", "MEAN_MOTION": 15.44445642, "ECCENTRICITY": 0.00098528, "INCLINATION": 64.9736, "RA_OF_ASC_NODE": 215.2289, "ARG_OF_PERICENTER": 245.0091, "MEAN_ANOMALY": 115.0027, "EPHEMERIS_TYPE": 0, "CLASSIFICATION_TYPE": "U", "NORAD_CAT_ID": 39574, "ELEMENT_SET_NO": 999, "REV_AT_EPOCH": 66889, "BSTAR": 0.00025562842, "MEAN_MOTION_DOT": 0.00011679, "MEAN_MOTION_DDOT": 0}, "tle": {"line1": "1 39574U 14009C   25345.97849023  .00011679  00000+0  25563-3 0  9990", "line2": "2 39574  64.9736 215.2289 0009852 245.0091 115.0027 15.44445642668891"}}, "geometry": {"type": "Point", "coordinates": [-136.36990045440618, 19.044003137077222]}}, {"type": "Feature", "properties": {"norad_id": 39634, "name": "SENTINEL-1A", "group": "resource", "lat": 26.742297880749916, "lon": -12.666954888846664, "alt_km": 694.2586212865626, "timestamp": "2025-12-12T05:47:28.428965+00:00", "meta": {"OBJECT_NAME": "SENTINEL-1A", "OBJECT_ID": "2014-016A", "EPOCH": "2025-12-12T00:43:50.072160", "MEAN_MOTION": 14.59200377, "ECCENTRICITY": 0.00012303, "INCLINATION": 98.1806, "RA_OF_ASC_NODE": 351.2819, "ARG_OF_PERICENTER": 83.7804, "MEAN_ANOMALY": 276.3535, "EPHEMERIS_TYPE": 0, "CLASSIFICATION_TYPE": "U", "NORAD_CAT_ID": 39634, "ELEMENT_SET_NO": 999, "REV_AT_EPOCH": 62272, "BSTAR": 9.4194304e-05, "MEAN_MOTION_DOT": 3.98e-06, "MEAN_MOTION_DDOT": 0}, "tle": {"line1": "1 39634U 14016A   25346.03044065  .00000398  00000+0  94194-4 0  9999", "line2": "2 39634  98.1806 351.2819 0001230  83.7804 276.3535 14.59200377622722"}}, "geometry": {"type": "Point", "coordinates": [-12.666954888846664, 26.742297880749916]}}, {"type": "Feature", "properties": {"norad_id": 39731, "name": "KAZEOSAT 1", "group": "resource", "lat": 31.88070372345891, "lon": 52.92244853858325, "alt_km": 749.4562813225584, "timestamp": "2025-12-12T05:47:28.428975+00:00", "meta": {"OBJECT_NAME": "KAZEOSAT 1", "OBJECT_ID": "2014-024A", "EPOCH": "2025-12-12T00:38:46.872960", "MEAN_MOTION": 14.42061784, "ECCENTRICITY": 0.00011134, "INCLINATION": 98.3429, "RA_OF_ASC_NODE": 57.9497, "ARG_OF_PERICENTER": 94.1883, "MEAN_ANOMALY": 265.9434, "EPHEMERIS_TYPE": 0, "CLASSIFICATION_TYPE": "U", "NORAD_CAT_ID": 39731, "ELEMENT_SET_NO": 999, "REV_AT_EPOCH": 61158, "BSTAR": 0.00012654729, "MEAN_MOTION_DOT": 3.73e-06, "MEAN_MOTION_DDOT": 0}, "tle": {"line1": "1 39731U 14024A   25346.02693140  .00000373  00000+0  12655-3 0  9993", "line2": "2 39731  98.3429  57.9497 0001113  94.1883 265.9434 14.42061784611581"}}, "geometry": {"type": "Point", "coordinates": [52.92244853858325, 31.88070372345891]}}, {"type": "Feature", "properties": {"norad_id": 39766, "name": "ALOS-2", "group": "resource", "lat": -29.285004084475013, "lon": -103.384922190452, "alt_km": 637.2336571861779, "timestamp": "2025-12-12T05:47:28.428985+00:00", "meta": {"OBJECT_NAME": "ALOS-2", "OBJECT_ID": "2014-029A", "EPOCH": "2025-12-11T23:58:40.105920", "MEAN_MOTION": 14.7946834, "ECCENTRICITY": 0.0001411, "INCLINATION": 97.9219, "RA_OF_ASC_NODE": 80.8553, "ARG_OF_PERICENTER": 102.192, "MEAN_ANOMALY": 257.945, "EPHEMERIS_TYPE": 0, "CLASSIFICATION_TYPE": "U", "NORAD_CAT_ID": 39766, "ELEMENT_SET_NO": 999, "REV_AT_EPOCH": 62390, "BSTAR": 0.00052746193, "MEAN_MOTION_DOT": 3.889e-05, "MEAN_MOTION_DDOT": 0}, "tle": {"line1": "1 39766U 14029A   25345.99907530  .00003889  00000+0  52746-3 0  9992", "line2": "2 39766  97.9219  80.8553 0001411 102.1920 257.9450 14.79468340623909"}}, "geometry": {"type": "Point", "coordinates": [-103.384922190452, -29.285004084475013]}}, {"type": "Feature", "properties": {"norad_id": 40010, "name": "KAZEOSAT 2", "group": "resource", "lat": 69.25049086710169, "lon": 31.075552022468113, "alt_km": 607.1800764173558, "timestamp": "2025-12-12T05:47:28.428996+00:00", "meta": {"OBJECT_NAME": "KAZEOSAT 2", "OBJECT_ID": "2014-033A", "EPOCH": "2025-12-12T00:26:56.903424", "MEAN_MOTION": 14.85168883, "ECCENTRICITY": 0.00075754, "INCLINATION": 97.5506, "RA_OF_ASC_NODE": 190.3706, "ARG_OF_PERICENTER": 209.1846, "MEAN_ANOMALY": 150.8948, "EPHEMERIS_TYPE": 0, "CLASSIFICATION_TYPE": "U", "NORAD_CAT_ID": 40010, "ELEMENT_SET_NO": 999, "REV_AT_EPOCH": 62117, "BSTAR": 0.00021346272, "MEAN_MOTION_DOT": 1.779e-05, "MEAN_MOTION_DDOT": 0}, "tle": {"line1": "1 40010U 14033A   25346.01871416  .00001779  00000+0  21346-3 0  9996", "line2": "2 40010  97.5506 190.3706 0007575 209.1846 150.8948 14.85168883621173"}}, "geometry": {"type": "Point", "coordinates": [31.075552022468113, 69.25049086710169]}}, {"type": "Feature", "properties": {"norad_id": 40011, "name": "HODOYOSHI-4", "group": "resource", "lat": -12.999049732048517, "lon": -6.603181376049379, "alt_km": 594.3935491937473, "timestamp": "2025-12-12T05:47:28.429006+00:00", "meta": {"OBJECT_NAME": "HODOYOSHI-4", "OBJECT_ID": "2014-033B", "EPOCH": "2025-12-12T00:04:55.938144", "MEAN_MOTION": 14.8747831, "ECCENTRICITY": 0.00232014, "INCLINATION": 97.5415, "RA_OF_ASC_NODE": 174.9233, "ARG_OF_PERICENTER": 203.3013, "MEAN_ANOMALY": 156.7154, "EPHEMERIS_TYPE": 0, "CLASSIFICATION_TYPE": "U", "NORAD_CAT_ID": 40011, "ELEMENT_SET_NO": 999, "REV_AT_EPOCH": 62097, "BSTAR": 0.00040840171, "MEAN_MOTION_DOT": 3.667e-05, "MEAN_MOTION_DDOT": 0}, "tle": {"line1": "1 40011U 14033B   25346.00342521  .00003667  00000+0  40840-3 0  9994", "line2": "2 40011  97.5415 174.9233 0023201 203.3013 156.7154 14.87478310620974"}}, "geometry": {"type": "Point", "coordinates": [-6.603181376049379, -12.999049732048517]}}, {"type": "Feature", "properties": {"norad_id": 40013, "name": "DEIMOS-2", "group": "resource", "lat": -19.509964915966222, "lon": -135.2280523607382, "alt_km": 594.1085097635905, "timestamp": "2025-12-12T05:47:28.429016+00:00", "meta": {"OBJECT_NAME": "DEIMOS-2", "OBJECT_ID": "2014-033D", "EPOCH": "2025-12-11T23:26:42.357696", "MEAN_MOTION": 14.92969321, "ECCENTRICITY": 8.313e-05, "INCLINATION": 97.6063, "RA_OF_ASC_NODE": 221.8025, "ARG_OF_PERICENTER": 95.5301, "MEAN_ANOMALY": 264.6013, "EPHEMERIS_TYPE": 0, "CLASSIFICATION_TYPE": "U", "NORAD_CAT_ID": 40013, "ELEMENT_SET_NO": 999, "REV_AT_EPOCH": 60978, "BSTAR": 0.00040719116, "MEAN_MOTION_DOT": 4.175e-05, "MEAN_MOTION_DDOT": 0}, "tle": {"line1": "1 40013U 14033D   25345.97687914  .00004175  00000+0  40719-3 0  9999", "line2": "2 40013  97.6063 221.8025 0000831  95.5301 264.6013 14.92969321609784"}}, "geometry": {"type": "Point", "coordinates": [-135.2280523607382, -19.509964915966222]}}, {"type": "Feature", "properties": {"norad_id": 40015, "name": "HODOYOSHI-3", "group": "resource", "lat": 56.24923079212041, "lon": -16.344763264984003, "alt_km": 622.1394157163468, "timestamp": "2025-12-12T05:47:28.429027+00:00", "meta": {"OBJECT_NAME": "HODOYOSHI-3", "OBJECT_ID": "2014-033F", "EPOCH": "2025-12-12T00:23:04.432128", "MEAN_MOTION": 14.84802941, "ECCENTRICITY": 0.00318875, "INCLINATION": 97.6199, "RA_OF_ASC_NODE": 151.8825, "ARG_OF_PERICENTER": 250.4066, "MEAN_ANOMALY": 109.3706, "EPHEMERIS_TYPE": 0, "CLASSIFICATION_TYPE": "U", "NORAD_CAT_ID": 40015, "ELEMENT_SET_NO": 999, "REV_AT_EPOCH": 61984, "BSTAR": 0.00033501729, "MEAN_MOTION_DOT": 2.817e-05, "MEAN_MOTION_DDOT": 0}, "tle": {"line1": "1 40015U 14033F   25346.01602352  .00002817  00000+0  33502-3 0  9993", "line2": "2 40015  97.6199 151.8825 0031887 250.4066 109.3706 14.84802941619848"}}, "geometry": {"type": "Point", "coordinates": [-16.344763264984003, 56.24923079212041]}}, {"type": "Feature", "properties": {"norad_id": 40053, "name": "SPOT 7", "group": "resource", "lat": -67.66909329807595, "lon": -151.9326398226042, "alt_km": 699.1179366227698, "timestamp": "2025-12-12T05:47:28.429037+00:00", "meta": {"OBJECT_NAME": "SPOT 7", "OBJECT_ID": "2014-034A", "EPOCH": "2025-12-12T01:21:59.359392", "MEAN_MOTION": 14.60732273, "ECCENTRICITY": 0.00015705, "INCLINATION": 98.0902, "RA_OF_ASC_NODE": 48.1476, "ARG_OF_PERICENTER": 87.4586, "MEAN_ANOMALY": 272.6795, "EPHEMERIS_TYPE": 0, "CLASSIFICATION_TYPE": "U", "NORAD_CAT_ID": 40053, "ELEMENT_SET_NO": 999, "REV_AT_EPOCH": 60981, "BSTAR": 0.00019472946, "MEAN_MOTION_DOT": 9.04e-06, "MEAN_MOTION_DDOT": 0}, "tle": {"line1": "1 40053U 14034A   25346.05693703  .00000904  00000+0  19473-3 0  9996", "line2": "2 40053  98.0902  48.1476 0001570  87.4586 272.6795 14.60732273609810"}}, "geometry": {"type": "Point", "coordinates": [-151.9326398226042, -67.66909329807595]}}, {"type": "Feature", "properties": {"norad_id": 40072, "name": "SKYSAT-B", "group": "resource", "lat": 42.972451748759845, "lon": 117.79582200538337, "alt_km": 598.6572139017762, "timestamp": "2025-12-12T05:47:28.429048+00:00", "meta": {"OBJECT_NAME": "SKYSAT-B", "OBJECT_ID": "2014-037D", "EPOCH": "2025-12-11T17:52:40.490976", "MEAN_MOTION": 14.87321925, "ECCENTRICITY": 0.00060726, "INCLINATION": 98.3607, "RA_OF_ASC_NODE": 289.3985, "ARG_OF_PERICENTER": 153.0618, "MEAN_ANOMALY": 207.0912, "EPHEMERIS_TYPE": 0, "CLASSIFICATION_TYPE": "U", "NORAD_CAT_ID": 40072, "ELEMENT_SET_NO": 999, "REV_AT_EPOCH": 61809, "BSTAR": 0.00033654656, "MEAN_MOTION_DOT": 2.978e-05, "MEAN_MOTION_DDOT": 0}, "tle": {"line1": "1 40072U 14037D   25345.74491309  .00002978  00000+0  33655-3 0  9994", "line2": "2 40072  98.3607 289.3985 0006072 153.0618 207.0912 14.87321925618098"}}, "geometry": {"type": "Point", "coordinates": [117.79582200538337, 42.972451748759845]}}]}